0 RESURS O1 DEB
1 39050U 94074AA  13282.48924776  .00078263  00000-0  71532-2 0  2410
2 39050 098.1556 287.7795 0006644 081.5538 278.6434 14.94617655 46763
0 RESURS O1 DEB
1 39050U 94074AA  13282.55619247  .00061637  00000-0  56496-2 0  2422
2 39050 098.1559 287.8490 0006588 080.7871 279.4093 14.94608437 46776
0 RESURS O1 DEB
1 39050U 94074AA  13282.95787587  .00064609  00000-0  59141-2 0  2432
2 39050 098.1571 288.2650 0006507 080.6764 279.5191 14.94642704 46836
0 RESURS O1 DEB
1 39050U 94074AA  13283.49344876  .00126716  00000-0  11681-1 0  2447
2 39050 098.1522 288.8234 0007290 075.8253 284.4277 14.94704554 46916
0 RESURS O1 DEB
1 39050U 94074AA  13283.69429250  .00047323  00000-0  43627-2 0  2452
2 39050 098.1518 289.0295 0009067 075.6965 284.5758 14.94689924 46944
0 RESURS O1 DEB
1 39050U 94074AA  13283.96203488  .00060732  00000-0  55485-2 0  2448
2 39050 098.1562 289.3094 0006589 079.5116 280.6845 14.94742481 46986
0 RESURS O1 DEB
1 39050U 94074AA  13285.97015579  .00057062  00000-0  51899-2 0  2451
2 39050 098.1562 291.3964 0006350 076.3836 283.8090 14.94943765 47284
0 RESURS O1 DEB
1 39050U 94074AA  13286.97411518  .00051717  00000-0  46963-2 0  2463
2 39050 098.1554 292.4405 0006381 074.7468 285.4456 14.95040194 47430
0 RESURS O1 DEB
1 39050U 94074AA  13287.71031004  .00079069  00000-0  71339-2 0  2470
2 39050 098.1552 293.2060 0006207 074.2736 285.9168 14.95125156 47543
0 RESURS O1 DEB
1 39050U 94074AA  13288.71412837  .00089356  00000-0  80169-2 0  2480
2 39050 098.1549 294.2505 0006084 072.5763 287.6121 14.95284779 47699
0 RESURS O1 DEB
1 39050U 94074AA  13288.98179603  .00078739  00000-0  70715-2 0  2490
2 39050 098.1549 294.5279 0006036 073.1484 287.0397 14.95308945 47730
0 RESURS O1 DEB
1 39050U 94074AA  13289.71785342  .00084109  00000-0  75326-2 0  2508
2 39050 098.1540 295.2941 0005897 071.4801 288.7059 14.95387309 47849
0 RESURS O1 DEB
1 39050U 94074AA  13289.98550146  .00070628  00000-0  63330-2 0  2513
2 39050 098.1539 295.5728 0005719 069.2064 290.9768 14.95421423 47884
0 RESURS O1 DEB
1 39050U 94074AA  13291.45745856  .00067416  00000-0  60203-2 0  2520
2 39050 098.1532 297.1034 0005572 068.9930 291.1885 14.95602683 48108
0 RESURS O1 DEB
1 39050U 94074AA  13292.46096659  .00064859  00000-0  57768-2 0  2533
2 39050 098.1537 298.1472 0005387 067.7865 292.3926 14.95722138 48251
0 RESURS O1 DEB
1 39050U 94074AA  13293.46439595  .00069179  00000-0  61394-2 0  2545
2 39050 098.1534 299.1908 0005179 066.6178 293.5586 14.95837441 48403
0 RESURS O1 DEB
1 39050U 94074AA  13294.46774795  .00076246  00000-0  67413-2 0  2552
2 39050 098.1531 300.2342 0004986 066.0145 294.1597 14.95942181 48552
0 RESURS O1 DEB
1 39050U 94074AA  13295.47102480  .00082777  00000-0  72883-2 0  2564
2 39050 098.1538 301.2781 0004873 065.2274 294.9453 14.96066431 48708
